[{"OBJECT_NAME":"STARLINK-36810","OBJECT_ID":"2026-035V","EPOCH":"2026-03-05T04:25:46.762464","MEAN_MOTION":15.99023979,"ECCENTRICITY":0.00010746,"INCLINATION":97.2736,"RA_OF_ASC_NODE":356.197,"ARG_OF_PERICENTER":155.2379,"MEAN_ANOMALY":204.8951,"EPHEMERIS_TYPE":0,"CLASSIFICATION_TYPE":"U","NORAD_CAT_ID":67898,"ELEMENT_SET_NO":999,"REV_AT_EPOCH":312,"BSTAR":-0.00074936082,"MEAN_MOTION_DOT":-0.00360093,"MEAN_MOTION_DDOT":4.8323384e-5},{"OBJECT_NAME":"STARLINK-36878","OBJECT_ID":"2026-035W","EPOCH":"2026-03-05T04:23:50.347968","MEAN_MOTION":15.9929355,"ECCENTRICITY":0.00015192,"INCLINATION":97.273,"RA_OF_ASC_NODE":356.2008,"ARG_OF_PERICENTER":152.7124,"MEAN_ANOMALY":207.4234,"EPHEMERIS_TYPE":0,"CLASSIFICATION_TYPE":"U","NORAD_CAT_ID":67899,"ELEMENT_SET_NO":999,"REV_AT_EPOCH":312,"BSTAR":-0.00081113857,"MEAN_MOTION_DOT":-0.00395612,"MEAN_MOTION_DDOT":5.7709744e-5},{"OBJECT_NAME":"STARLINK-36361","OBJECT_ID":"2026-035X","EPOCH":"2026-03-05T04:22:47.448768","MEAN_MOTION":15.99366009,"ECCENTRICITY":0.00015016,"INCLINATION":97.274,"RA_OF_ASC_NODE":356.2023,"ARG_OF_PERICENTER":55.9723,"MEAN_ANOMALY":304.1698,"EPHEMERIS_TYPE":0,"CLASSIFICATION_TYPE":"U","NORAD_CAT_ID":67900,"ELEMENT_SET_NO":999,"REV_AT_EPOCH":312,"BSTAR":-0.00068670696,"MEAN_MOTION_DOT":-0.0033647,"MEAN_MOTION_DDOT":4.2812383e-5},{"OBJECT_NAME":"STARLINK-36336","OBJECT_ID":"2026-035Y","EPOCH":"2026-03-05T05:49:41.234304","MEAN_MOTION":15.99472127,"ECCENTRICITY":5.545e-5,"INCLINATION":97.2738,"RA_OF_ASC_NODE":356.2721,"ARG_OF_PERICENTER":115.8839,"MEAN_ANOMALY":244.2497,"EPHEMERIS_TYPE":0,"CLASSIFICATION_TYPE":"U","NORAD_CAT_ID":67901,"ELEMENT_SET_NO":999,"REV_AT_EPOCH":313,"BSTAR":-0.00067133726,"MEAN_MOTION_DOT":-0.00330887,"MEAN_MOTION_DDOT":4.1562836e-5},{"OBJECT_NAME":"STARLINK-36876","OBJECT_ID":"2026-035Z","EPOCH":"2026-03-05T05:51:58.940352","MEAN_MOTION":15.99325355,"ECCENTRICITY":0.00017452,"INCLINATION":97.2749,"RA_OF_ASC_NODE":356.2694,"ARG_OF_PERICENTER":60.0174,"MEAN_ANOMALY":300.1277,"EPHEMERIS_TYPE":0,"CLASSIFICATION_TYPE":"U","NORAD_CAT_ID":67902,"ELEMENT_SET_NO":999,"REV_AT_EPOCH":313,"BSTAR":-0.00054203966,"MEAN_MOTION_DOT":-0.00265202,"MEAN_MOTION_DDOT":2.7740052e-5},{"OBJECT_NAME":"STARLINK-36257","OBJECT_ID":"2026-035AA","EPOCH":"2026-03-05T05:50:58.671168","MEAN_MOTION":15.99433747,"ECCENTRICITY":5.304e-5,"INCLINATION":97.2722,"RA_OF_ASC_NODE":356.2749,"ARG_OF_PERICENTER":142.1471,"MEAN_ANOMALY":217.9844,"EPHEMERIS_TYPE":0,"CLASSIFICATION_TYPE":"U","NORAD_CAT_ID":67903,"ELEMENT_SET_NO":999,"REV_AT_EPOCH":313,"BSTAR":0.00024837539,"MEAN_MOTION_DOT":0.00121244,"MEAN_MOTION_DDOT":8.107749e-6},{"OBJECT_NAME":"STARLINK-36301","OBJECT_ID":"2026-037A","EPOCH":"2026-03-05T06:00:02.999808","MEAN_MOTION":15.92915538,"ECCENTRICITY":0.00015752,"INCLINATION":42.9999,"RA_OF_ASC_NODE":225.962,"ARG_OF_PERICENTER":276.4178,"MEAN_ANOMALY":168.5634,"EPHEMERIS_TYPE":0,"CLASSIFICATION_TYPE":"U","NORAD_CAT_ID":67932,"ELEMENT_SET_NO":999,"REV_AT_EPOCH":239,"BSTAR":-0.00430241,"MEAN_MOTION_DOT":-0.01547035,"MEAN_MOTION_DDOT":0.00067759343},{"OBJECT_NAME":"STARLINK-36852","OBJECT_ID":"2026-037B","EPOCH":"2026-03-05T06:00:02.999808","MEAN_MOTION":15.9305575,"ECCENTRICITY":0.00013779,"INCLINATION":43.0001,"RA_OF_ASC_NODE":225.9566,"ARG_OF_PERICENTER":275.4768,"MEAN_ANOMALY":171.5925,"EPHEMERIS_TYPE":0,"CLASSIFICATION_TYPE":"U","NORAD_CAT_ID":67933,"ELEMENT_SET_NO":999,"REV_AT_EPOCH":248,"BSTAR":-0.0042449723,"MEAN_MOTION_DOT":-0.0153776,"MEAN_MOTION_DDOT":0.00067106776},{"OBJECT_NAME":"STARLINK-36861","OBJECT_ID":"2026-037C","EPOCH":"2026-03-05T06:00:02.999808","MEAN_MOTION":15.9318372,"ECCENTRICITY":0.00014689,"INCLINATION":43,"RA_OF_ASC_NODE":225.9499,"ARG_OF_PERICENTER":276.2652,"MEAN_ANOMALY":173.5586,"EPHEMERIS_TYPE":0,"CLASSIFICATION_TYPE":"U","NORAD_CAT_ID":67934,"ELEMENT_SET_NO":999,"REV_AT_EPOCH":248,"BSTAR":-0.0042148638,"MEAN_MOTION_DOT":-0.01537216,"MEAN_MOTION_DDOT":0.00067147444},{"OBJECT_NAME":"STARLINK-36860","OBJECT_ID":"2026-037D","EPOCH":"2026-03-05T06:00:02.999808","MEAN_MOTION":15.9330493,"ECCENTRICITY":0.00016779,"INCLINATION":42.9999,"RA_OF_ASC_NODE":225.943,"ARG_OF_PERICENTER":277.6204,"MEAN_ANOMALY":175.0543,"EPHEMERIS_TYPE":0,"CLASSIFICATION_TYPE":"U","NORAD_CAT_ID":67935,"ELEMENT_SET_NO":999,"REV_AT_EPOCH":248,"BSTAR":-0.0041677514,"MEAN_MOTION_DOT":-0.01529933,"MEAN_MOTION_DDOT":0.00066643304},{"OBJECT_NAME":"STARLINK-36848","OBJECT_ID":"2026-037E","EPOCH":"2026-03-05T06:00:02.999808","MEAN_MOTION":15.9356659,"ECCENTRICITY":0.00014532,"INCLINATION":43,"RA_OF_ASC_NODE":225.9288,"ARG_OF_PERICENTER":275.7658,"MEAN_ANOMALY":182.3129,"EPHEMERIS_TYPE":0,"CLASSIFICATION_TYPE":"U","NORAD_CAT_ID":67936,"ELEMENT_SET_NO":999,"REV_AT_EPOCH":248,"BSTAR":-0.004131143,"MEAN_MOTION_DOT":-0.01537491,"MEAN_MOTION_DDOT":0.00067423447},{"OBJECT_NAME":"STARLINK-36370","OBJECT_ID":"2026-037F","EPOCH":"2026-03-05T06:00:02.999808","MEAN_MOTION":15.93433753,"ECCENTRICITY":0.00016823,"INCLINATION":43.0002,"RA_OF_ASC_NODE":225.9357,"ARG_OF_PERICENTER":273.3199,"MEAN_ANOMALY":182.25,"EPHEMERIS_TYPE":0,"CLASSIFICATION_TYPE":"U","NORAD_CAT_ID":67937,"ELEMENT_SET_NO":999,"REV_AT_EPOCH":248,"BSTAR":-0.0041516576,"MEAN_MOTION_DOT":-0.01534388,"MEAN_MOTION_DDOT":0.00067085543},{"OBJECT_NAME":"STARLINK-36371","OBJECT_ID":"2026-037G","EPOCH":"2026-03-05T06:00:02.999808","MEAN_MOTION":15.9369666,"ECCENTRICITY":0.0001451,"INCLINATION":43,"RA_OF_ASC_NODE":225.9226,"ARG_OF_PERICENTER":276.8162,"MEAN_ANOMALY":183.5632,"EPHEMERIS_TYPE":0,"CLASSIFICATION_TYPE":"U","NORAD_CAT_ID":67938,"ELEMENT_SET_NO":999,"REV_AT_EPOCH":248,"BSTAR":-0.0040869217,"MEAN_MOTION_DOT":-0.01531636,"MEAN_MOTION_DDOT":0.00067038369},{"OBJECT_NAME":"STARLINK-36246","OBJECT_ID":"2026-037H","EPOCH":"2026-03-05T06:00:02.999808","MEAN_MOTION":15.93835381,"ECCENTRICITY":0.00016509,"INCLINATION":43.0001,"RA_OF_ASC_NODE":225.9174,"ARG_OF_PERICENTER":275.8568,"MEAN_ANOMALY":186.8032,"EPHEMERIS_TYPE":0,"CLASSIFICATION_TYPE":"U","NORAD_CAT_ID":67939,"ELEMENT_SET_NO":999,"REV_AT_EPOCH":239,"BSTAR":-0.0040789955,"MEAN_MOTION_DOT":-0.01539917,"MEAN_MOTION_DDOT":0.00067799238},{"OBJECT_NAME":"STARLINK-36907","OBJECT_ID":"2026-037J","EPOCH":"2026-03-05T06:00:02.999808","MEAN_MOTION":15.9421836,"ECCENTRICITY":0.00014484,"INCLINATION":43,"RA_OF_ASC_NODE":225.8973,"ARG_OF_PERICENTER":273.2739,"MEAN_ANOMALY":196.9512,"EPHEMERIS_TYPE":0,"CLASSIFICATION_TYPE":"U","NORAD_CAT_ID":67940,"ELEMENT_SET_NO":999,"REV_AT_EPOCH":248,"BSTAR":-0.0039836608,"MEAN_MOTION_DOT":-0.01534949,"MEAN_MOTION_DDOT":0.0006765484},{"OBJECT_NAME":"STARLINK-36927","OBJECT_ID":"2026-037K","EPOCH":"2026-03-05T06:00:02.999808","MEAN_MOTION":15.94471279,"ECCENTRICITY":0.00015035,"INCLINATION":42.9999,"RA_OF_ASC_NODE":225.8852,"ARG_OF_PERICENTER":272.1036,"MEAN_ANOMALY":202.9041,"EPHEMERIS_TYPE":0,"CLASSIFICATION_TYPE":"U","NORAD_CAT_ID":67941,"ELEMENT_SET_NO":999,"REV_AT_EPOCH":248,"BSTAR":-0.0039101509,"MEAN_MOTION_DOT":-0.01527256,"MEAN_MOTION_DDOT":0.00067202302}]
