STARLINK-36810          
1 67898U 26035V   26064.18456901 -.00360093  48323-4 -74936-3 0  9995
2 67898  97.2736 356.1970 0001074 155.2379 204.8951 15.99023979  3128
STARLINK-36878          
1 67899U 26035W   26064.18322162 -.00395612  57710-4 -81114-3 0  9998
2 67899  97.2730 356.2008 0001519 152.7124 207.4234 15.99293550  3127
STARLINK-36361          
1 67900U 26035X   26064.18249362 -.00336470  42812-4 -68671-3 0  9998
2 67900  97.2740 356.2023 0001501  55.9723 304.1698 15.99366009  3127
STARLINK-36336          
1 67901U 26035Y   26064.24283836 -.00330887  41563-4 -67134-3 0  9991
2 67901  97.2738 356.2721 0000554 115.8839 244.2497 15.99472127  3132
STARLINK-36876          
1 67902U 26035Z   26064.24443218 -.00265202  27740-4 -54204-3 0  9997
2 67902  97.2749 356.2694 0001745  60.0174 300.1277 15.99325355  3138
STARLINK-36257          
1 67903U 26035AA  26064.24373462  .00121244  81077-5  24838-3 0  9990
2 67903  97.2722 356.2749 0000530 142.1471 217.9844 15.99433747  3134
STARLINK-36301          
1 67932U 26037A   26064.25003472 -.01547035  67759-3 -43024-2 0  9995
2 67932  42.9999 225.9620 0001575 276.4178 168.5634 15.92915538  2395
STARLINK-36852          
1 67933U 26037B   26064.25003472 -.01537760  67107-3 -42450-2 0  9999
2 67933  43.0001 225.9566 0001377 275.4768 171.5925 15.93055750  2484
STARLINK-36861          
1 67934U 26037C   26064.25003472 -.01537216  67147-3 -42149-2 0  9995
2 67934  43.0000 225.9499 0001468 276.2652 173.5586 15.93183720  2485
STARLINK-36860          
1 67935U 26037D   26064.25003472 -.01529933  66643-3 -41678-2 0  9999
2 67935  42.9999 225.9430 0001677 277.6204 175.0543 15.93304930  2484
STARLINK-36848          
1 67936U 26037E   26064.25003472 -.01537491  67423-3 -41311-2 0  9999
2 67936  43.0000 225.9288 0001453 275.7658 182.3129 15.93566590  2488
STARLINK-36370          
1 67937U 26037F   26064.25003472 -.01534388  67086-3 -41517-2 0  9995
2 67937  43.0002 225.9357 0001682 273.3199 182.2500 15.93433753  2482
STARLINK-36371          
1 67938U 26037G   26064.25003472 -.01531636  67038-3 -40869-2 0  9995
2 67938  43.0000 225.9226 0001451 276.8162 183.5632 15.93696660  2486
STARLINK-36246          
1 67939U 26037H   26064.25003472 -.01539917  67799-3 -40790-2 0  9993
2 67939  43.0001 225.9174 0001650 275.8568 186.8032 15.93835381  2395
STARLINK-36907          
1 67940U 26037J   26064.25003472 -.01534949  67655-3 -39837-2 0  9996
2 67940  43.0000 225.8973 0001448 273.2739 196.9512 15.94218360  2487
STARLINK-36927          
1 67941U 26037K   26064.25003472 -.01527256  67202-3 -39102-2 0  9993
2 67941  42.9999 225.8852 0001503 272.1036 202.9041 15.94471279  2484
